[{"OBJECT_NAME":"STARLINK-5821","OBJECT_ID":"2023-088X","EPOCH":"2026-03-09T22:00:01.999584","MEAN_MOTION":15.07650569,"ECCENTRICITY":0.00017859,"INCLINATION":43.0009,"RA_OF_ASC_NODE":93.4567,"ARG_OF_PERICENTER":244.9913,"MEAN_ANOMALY":28.8235,"EPHEMERIS_TYPE":0,"CLASSIFICATION_TYPE":"U","NORAD_CAT_ID":57069,"ELEMENT_SET_NO":999,"REV_AT_EPOCH":577,"BSTAR":0.0034034715,"MEAN_MOTION_DOT":0.00052934,"MEAN_MOTION_DDOT":0},{"OBJECT_NAME":"FENGYUN 1C DEB","OBJECT_ID":"1999-025DZE","EPOCH":"2026-02-28T06:22:54.338880","MEAN_MOTION":15.08907087,"ECCENTRICITY":0.00232464,"INCLINATION":99.4552,"RA_OF_ASC_NODE":173.2368,"ARG_OF_PERICENTER":218.3208,"MEAN_ANOMALY":141.6363,"EPHEMERIS_TYPE":0,"CLASSIFICATION_TYPE":"U","NORAD_CAT_ID":36684,"ELEMENT_SET_NO":999,"REV_AT_EPOCH":67065,"BSTAR":0.0055309563,"MEAN_MOTION_DOT":0.00088715,"MEAN_MOTION_DDOT":0}]
